#cP2021  4  1  0  0  0.00000000      96 ORBIT IGb14 HLM  IGS
## 2151 345600.00000000   900.00000000 59305 0.0000000000000
+   32   G01G02G03G04G05G06G07G08G09G10G11G12G13G14G15G16G17
+        G18G19G20G21G22G23G24G25G26G27G28G29G30G31G32  0  0
+          0  0  0  0  0  0  0  0  0  0  0  0  0  0  0  0  0
+          0  0  0  0  0  0  0  0  0  0  0  0  0  0  0  0  0
+          0  0  0  0  0  0  0  0  0  0  0  0  0  0  0  0  0
++         2  2  2  2  2  2  2  2  0  1  2  1  2  2  2  2  2
++         2  2  1  2  2  2  2  1  1  2  1  2  2  1  1  0  0
++         0  0  0  0  0  0  0  0  0  0  0  0  0  0  0  0  0
++         0  0  0  0  0  0  0  0  0  0  0  0  0  0  0  0  0
++         0  0  0  0  0  0  0  0  0  0  0  0  0  0  0  0  0
%c G  cc GPS ccc cccc cccc cccc cccc ccccc ccccc ccccc ccccc
%c cc cc ccc ccc cccc cccc cccc cccc ccccc ccccc ccccc ccccc
%f  1.2500000  1.025000000  0.00000000000  0.000000000000000
%f  0.0000000  0.000000000  0.00000000000  0.000000000000000
%i    0    0    0    0      0      0      0      0         0
%i    0    0    0    0      0      0      0      0         0
/* FINAL ORBIT COMBINATION FROM WEIGHTED AVERAGE OF:        
/* cod emr esa gfz grg jpl mit ngs sio                      
/* REFERENCED TO IGS TIME (IGST) AND TO WEIGHTED MEAN POLE: 
/* PCV:IGS14_2148 OL/AL:FES2004  NONE     Y  ORB:CMB CLK:CMB
*  2021  4  1  4 30  0.00000000
PG01  -7427.869389  18341.453852 -17790.448264    727.585468  7  4  3  95       
PG02  22188.900379 -14393.396211  -1984.551851   -591.561314  4  4  5  74       
PG03   3404.641742  17375.042206 -19910.488156   -124.196396  6  4  4  87       
PG04  -1650.629990  26383.770320  -2250.254828   -189.456269  5  8  6  87       
PG05  14526.365445  -8849.583428  20295.512469    -37.831491  3  6  2  82       
PG06  22618.939557  -3417.574388 -13485.657817      4.135229  4  5  5  84       
PG07   7699.079658  13526.160590  21855.335656    108.169630  5  6  4  80       
PG08  -6115.468420  23451.573641  10495.181458    -15.872422  5  6  3  75       
PG09   6791.496095  24390.300067   7926.978422 999999.999999
PG10 -23986.396672 -11630.758903  -1501.062457    -92.822668  2  6  5  76       
PG11  -6528.349075  24544.460856  -8840.422089     17.074574  7 10  7 101       
PG12   1109.140843 -16342.025879 -21194.132314    -21.818021  6  5  3  66       
PG13  12883.358321 -16381.204315  16256.843739    114.532502  6  5  5  91       
PG14  23100.352762  13104.759095   -832.437804     98.587651  3  5  3  58       
PG15   3675.369654 -24181.019336   9541.468543   -159.260739  6  4  4  68       
PG16 -17579.832697   4175.841083  19380.774482   -302.777448  3  6  3  73       
PG17  12935.066977  11203.946320 -19885.151950    419.107008  4  4  3  86       
PG18 -10682.442662 -11032.371210  21669.830412    351.407720  6  4  4  82       
PG19  14790.749738   1929.554065 -22262.590224    -18.860662  6  5  6 103       
PG20 -13517.654280 -16986.987264  15432.324479    523.613921  5  5  3  78       
PG21 -14233.593557  19251.031404 -10259.337375    107.570942  6  6  3  93       
PG22  -6289.985113  14387.261167 -21221.292961   -648.062928  7  4     72       
PG23 -18828.194644 -16474.255313   8963.671719    115.620080  5  7  4  54       
PG24  11294.353944 -20055.616468 -13149.332486      0.339363  5  7  4  80       
PG25 -13036.740698 -18435.715655 -14466.958206    109.935514  5  4  4  77       
PG26 -23573.378559  -1420.809779  12361.305413     65.997545  4  4  5  66       
PG27 -12302.203018  13712.139351  18820.381605   -104.594414  3  5  6  83       
PG28  22839.367310  12932.112712  -2754.800146    593.570340  2  3  4  61       
PG29  -4934.517670 -24470.834098   8964.566695   -322.106716  8  4  6  78       
PG30  19036.019461   4337.155710  18159.854054   -406.597695  5  4  5  58       
PG31 -23955.154401   5074.265801 -10932.394456   -108.979601  3  6  3  62       
PG32 -14633.071481  -8739.248280 -20306.983080     21.893349  4  3  3  91       
*  2021  4  1  4 45  0.00000000
PG01  -9086.614424  19261.934202 -15891.566197    727.577040  7  4  3  94       
PG02  21978.750486 -13912.618465  -4806.975647   -591.564544  4  3  5  73       
PG03   1294.382414  16415.829151 -20941.049450   -124.206025  6  4  3  83       
PG04  -1919.596788  25971.533107  -5068.109071   -189.458156  5  8  6  86       
PG05  16564.251663  -7814.803229  19151.633378    -37.832697  3  6  2  79       
PG06  21304.811316  -2375.481587 -15658.755824      4.137545  4  4  4  37       
PG07   5650.340921  14814.534281  21596.883500    108.180441  5  7  4  92       
PG08  -6441.819335  22123.546226  12929.903886    -15.873480  5  6  2  46       
PG09   6587.175602  25169.472418   5219.344149 999999.999999
PG10 -23910.598028 -11831.898738   1353.817919    -92.829718  2  6  5  65       
PG11  -7200.996080  25101.320293  -6281.125672     17.084008  7 11  7 110       
PG12   3200.776640 -15158.934757 -21845.094948    -21.822977  6  5  3  62       
PG13  12903.225385 -14387.390591  18028.733916    114.536418  6  5  5  79       
PG14  22912.539873  13302.043572   2014.583184     98.586152  2  6  3  63       
PG15   4229.150855 -22964.299625  11958.705396   -159.258510  6  3  4  55       
PG16 -19371.381929   2963.237991  17897.676595   -302.782958  2  6  3  63       
PG17  12841.750415  13479.722464 -18515.180845    419.113373  4  4  3  84       
PG18  -8587.390977 -12378.261403  21868.125783    351.408145  6  4  4  85       
PG19  14674.420358   4391.057150 -21993.729529    -18.855854  6  5  6  68       
PG20 -11677.789505 -16588.865068  17231.954726    523.613217  5  5  3  72       
PG21 -15304.733789  19714.086446  -7648.404733    107.573596  6  6  4  77       
PG22  -8585.422074  13479.598251 -20997.245047   -648.055032  7  5     49       
PG23 -17674.436674 -16178.436976  11486.586037    115.618647  5  7  4  73       
PG24  12545.879303 -20651.822473 -10808.458546      0.338263  5  6  4  87       
PG25 -11426.786404 -17815.441784 -16476.709814    109.942189  5  4  4  71       
PG26 -24643.391068  -2165.078043   9967.459094     66.002230  4  4  5  75       
PG27 -12561.916661  11455.186576  20134.094287   -104.600634  3  4  6  88       
PG28  22894.489876  13245.012750    132.092920    593.565326  2  3  4  58       
PG29  -4746.981735 -25343.416155   6237.673565   -322.112682  8  4  6  63       
PG30  17294.803990   5597.272860  19490.595617   -406.602550  4  5  5  65       
PG31 -22906.405504   4189.308603 -13276.068942   -108.981372  3  6  3  72       
PG32 -14690.529216 -11015.401931 -19145.943002     21.893657  4  3  3  71       
*  2021  4  1  5  0  0.00000000
PG01 -10510.109847  20136.451603 -13719.625261    727.568655  7  4  2  96       
PG02  21557.690293 -13207.570237  -7545.589353   -591.567642  4  2  4  77       
PG03   -953.444816  15533.380149 -21614.490443   -124.215742  5  4  3  90       
PG04  -2237.458079  25260.560507  -7798.444068   -189.459962  5  8  5  86       
PG05  18511.582168  -6939.991130  17675.929352    -37.833809  3  6  2  72       
PG06  19865.601500  -1121.667817 -17561.970707      4.139669  4  4  4  71       
PG07   3705.551848  16180.426170  20976.369551    108.191436  5  7  3  80       
PG08  -6873.634539  20553.316027  15138.618758    -15.875347  4  5  2  52       
PG09   6380.084567  25649.024409   2421.622656 999999.999999
PG10 -23551.085992 -11912.110945   4185.802340    -92.836746  2  6  4  65       
PG11  -7726.613474  25426.593487  -3617.303604     17.093704  7 11  7  96       
PG12   5401.818434 -14068.446112 -22129.392321    -21.827634  6  6  3  37       
PG13  13026.915859 -12213.342004  19485.773194    114.540221  5  6  5  92       
PG14  22446.376335  13370.564642   4826.967152     98.584701  2  6  4  70       
PG15   4900.635829 -21516.326451  14162.380096   -159.255858  6  3  5  66       
PG16 -21058.665940   1940.821244  16105.858504   -302.788014  2  6  3  83       
PG17  12862.160623  15577.940815 -16815.453644    419.119649  4  4  3  79       
PG18  -6565.439306 -13834.617261  21689.936653    351.408513  6  5  4  78       
PG19  14695.555601   6804.083961 -21356.553326    -18.851251  5  5  6  92       
PG20  -9638.725669 -16233.066548  18736.949321    523.613248  5  6  3  62       
PG21 -16112.925552  20027.623609  -4898.759664    107.576416  6  6  4  83       
PG22 -10878.200172  12694.677514 -20404.775894   -648.047430  6  5     79       
PG23 -16251.090470 -15843.184866  13812.071152    115.617248  5  6  5  49       
PG24  13562.600497 -21126.495333  -8279.717008      0.337980  4  6  5  67       
PG25  -9593.598052 -17200.045845 -18211.131907    109.948852  6  5  5  73       
PG26 -25487.784712  -2755.999897   7404.176290     66.006932  3  4  5  86       
PG27 -12957.973216   9088.531603  21093.093365   -104.606876  3  3  6  97       
PG28  22678.989361  13394.357468   3016.740435    593.560105  3  4  4  75       
PG29  -4592.298309 -25909.199229   3403.025677   -322.118722  8  5  6  62       
PG30  15509.274177   7017.805022  20489.384652   -406.607353  4  5  5  81       
PG31 -21701.691222   3104.050827 -15397.438429   -108.983283  4  5  3  61       
PG32 -14846.023507 -13134.486008 -17654.227452     21.893993  4  4  4  92       
EOF
